FLOCK 4BE-27            
1 60513U 24149AX  26068.75339182  .00011439  00000+0  36576-3 0  9992
2 60513  97.3862 150.6783 0002732 305.8980  54.2008 15.32593322 86906
STARLINK-35140          
1 65501U 25198K   26068.82615536  .00020541  00000+0  70378-3 0  9999
2 65501  53.1588 270.1745 0000948  84.2458 275.8650 15.30197411 28642
