[{"OBJECT_NAME":"FLOCK 4BE-27","OBJECT_ID":"2024-149AX","EPOCH":"2026-03-09T18:04:53.053248","MEAN_MOTION":15.32593322,"ECCENTRICITY":0.00027324,"INCLINATION":97.3862,"RA_OF_ASC_NODE":150.6783,"ARG_OF_PERICENTER":305.898,"MEAN_ANOMALY":54.2008,"EPHEMERIS_TYPE":0,"CLASSIFICATION_TYPE":"U","NORAD_CAT_ID":60513,"ELEMENT_SET_NO":999,"REV_AT_EPOCH":8690,"BSTAR":0.00036576028,"MEAN_MOTION_DOT":0.00011439,"MEAN_MOTION_DDOT":0},{"OBJECT_NAME":"STARLINK-35140","OBJECT_ID":"2025-198K","EPOCH":"2026-03-09T19:49:39.823104","MEAN_MOTION":15.30197411,"ECCENTRICITY":9.481e-5,"INCLINATION":53.1588,"RA_OF_ASC_NODE":270.1745,"ARG_OF_PERICENTER":84.2458,"MEAN_ANOMALY":275.865,"EPHEMERIS_TYPE":0,"CLASSIFICATION_TYPE":"U","NORAD_CAT_ID":65501,"ELEMENT_SET_NO":999,"REV_AT_EPOCH":2864,"BSTAR":0.00070378302,"MEAN_MOTION_DOT":0.00020541,"MEAN_MOTION_DDOT":0}]
